EUTELSAT QUANTUM        
1 49056U 21069B   25230.54473351  .00000114  00000+0  00000+0 0  9990
2 49056   0.0081 324.8563 0002113 208.6421  37.4563  1.00273971 14885
EUTELSAT KONNECT VHTS   
1 53765U 22110A   25230.17886684  .00000006  00000+0  00000+0 0  9996
2 53765   0.0561 103.1331 0002407  45.0394 245.6941  1.00269489 10742
EUTELSAT HOTBIRD 13F    
1 54048U 22134A   25230.53780014  .00000075  00000+0  00000+0 0  9993
2 54048   0.0586 287.9106 0001862  65.4574 180.3911  1.00272588 10404
EUTELSAT HOTBIRD 13G    
1 54225U 22146A   25230.40669729  .00000075  00000+0  00000+0 0  9998
2 54225   0.0538 243.8671 0002143 304.9109 297.6458  1.00271354 10187
EUTELSAT 10B            
1 54259U 22157A   25230.18034017  .00000057  00000+0  00000+0 0  9998
2 54259   0.0514  99.9733 0001319 348.9196 312.7769  1.00269990 10014
EUTELSAT 36D            
1 59346U 24059A   25229.47158895  .00000147  00000+0  00000+0 0  9994
2 59346   0.0151 110.3646 0000307 100.6708 320.6766  1.00271128  5107
